{"type": "FeatureCollection", "features": [{"type": "Feature", "properties": {"county": "Taipei City", "township": "Beitou District", "parcel_count": 3931, "total_area_ha": 774.86}, "geometry": {"type": "Point", "coordinates": [121.506196, 25.138636]}}, {"type": "Feature", "properties": {"county": "Taipei City", "township": "Shilin District", "parcel_count": 3252, "total_area_ha": 605.62}, "geometry": {"type": "Point", "coordinates": [121.549879, 25.125158]}}, {"type": "Feature", "properties": {"county": "Taipei City", "township": "Wenshan District", "parcel_count": 884, "total_area_ha": 376.12}, "geometry": {"type": "Point", "coordinates": [121.578346, 24.983357]}}, {"type": "Feature", "properties": {"county": "Taipei City", "township": "Nangang District", "parcel_count": 514, "total_area_ha": 140.37}, "geometry": {"type": "Point", "coordinates": [121.615418, 25.026954]}}, {"type": "Feature", "properties": {"county": "Taipei City", "township": "Neihu District", "parcel_count": 920, "total_area_ha": 139.95}, "geometry": {"type": "Point", "coordinates": [121.599248, 25.090933]}}, {"type": "Feature", "properties": {"county": "Taipei City", "township": "Xinyi District", "parcel_count": 140, "total_area_ha": 21.0}, "geometry": {"type": "Point", "coordinates": [121.575293, 25.024527]}}, {"type": "Feature", "properties": {"county": "Taipei City", "township": "Zhongshan District", "parcel_count": 33, "total_area_ha": 13.13}, "geometry": {"type": "Point", "coordinates": [121.540938, 25.087439]}}, {"type": "Feature", "properties": {"county": "Taipei City", "township": "Da'an District", "parcel_count": 13, "total_area_ha": 9.41}, "geometry": {"type": "Point", "coordinates": [121.549485, 25.011416]}}, {"type": "Feature", "properties": {"county": "Taichung City", "township": "Heping District", "parcel_count": 10920, "total_area_ha": 4691.77}, "geometry": {"type": "Point", "coordinates": [121.098356, 24.264738]}}, {"type": "Feature", "properties": {"county": "Taichung City", "township": "Dongshi District", "parcel_count": 12086, "total_area_ha": 4031.36}, "geometry": {"type": "Point", "coordinates": [120.837317, 24.247997]}}, {"type": "Feature", "properties": {"county": "Taichung City", "township": "Dajia District", "parcel_count": 21706, "total_area_ha": 3219.15}, "geometry": {"type": "Point", "coordinates": [120.637113, 24.381227]}}, {"type": "Feature", "properties": {"county": "Taichung City", "township": "Wufeng District", "parcel_count": 12441, "total_area_ha": 3194.28}, "geometry": {"type": "Point", "coordinates": [120.703466, 24.047442]}}, {"type": "Feature", "properties": {"county": "Taichung City", "township": "Xinshe District", "parcel_count": 13217, "total_area_ha": 3146.27}, "geometry": {"type": "Point", "coordinates": [120.827781, 24.183986]}}, {"type": "Feature", "properties": {"county": "Taichung City", "township": "Qingshui District", "parcel_count": 20348, "total_area_ha": 2918.84}, "geometry": {"type": "Point", "coordinates": [120.582534, 24.295519]}}, {"type": "Feature", "properties": {"county": "Taichung City", "township": "Taiping District", "parcel_count": 6442, "total_area_ha": 2818.08}, "geometry": {"type": "Point", "coordinates": [120.770586, 24.114421]}}, {"type": "Feature", "properties": {"county": "Taichung City", "township": "Houli District", "parcel_count": 15540, "total_area_ha": 2570.87}, "geometry": {"type": "Point", "coordinates": [120.70502, 24.310328]}}, {"type": "Feature", "properties": {"county": "Taichung City", "township": "Waipu District", "parcel_count": 15196, "total_area_ha": 2528.68}, "geometry": {"type": "Point", "coordinates": [120.667767, 24.334907]}}, {"type": "Feature", "properties": {"county": "Taichung City", "township": "Da'an District", "parcel_count": 13798, "total_area_ha": 1984.04}, "geometry": {"type": "Point", "coordinates": [120.593849, 24.36306]}}, {"type": "Feature", "properties": {"county": "Taichung City", "township": "Longjing District", "parcel_count": 7783, "total_area_ha": 1796.06}, "geometry": {"type": "Point", "coordinates": [120.534929, 24.197237]}}, {"type": "Feature", "properties": {"county": "Taichung City", "township": "Shengang District", "parcel_count": 11481, "total_area_ha": 1599.76}, "geometry": {"type": "Point", "coordinates": [120.674399, 24.263978]}}, {"type": "Feature", "properties": {"county": "Taichung City", "township": "Wuri District", "parcel_count": 8399, "total_area_ha": 1590.85}, "geometry": {"type": "Point", "coordinates": [120.635033, 24.075482]}}, {"type": "Feature", "properties": {"county": "Taichung City", "township": "Dadu District", "parcel_count": 6281, "total_area_ha": 1290.67}, "geometry": {"type": "Point", "coordinates": [120.550073, 24.144443]}}, {"type": "Feature", "properties": {"county": "Taichung City", "township": "Fengyuan District", "parcel_count": 8423, "total_area_ha": 1263.47}, "geometry": {"type": "Point", "coordinates": [120.737627, 24.252227]}}, {"type": "Feature", "properties": {"county": "Taichung City", "township": "Daya District", "parcel_count": 8128, "total_area_ha": 1181.71}, "geometry": {"type": "Point", "coordinates": [120.646261, 24.22704]}}, {"type": "Feature", "properties": {"county": "Taichung City", "township": "Shalu District", "parcel_count": 4691, "total_area_ha": 1100.1}, "geometry": {"type": "Point", "coordinates": [120.582568, 24.234058]}}, {"type": "Feature", "properties": {"county": "Taichung City", "township": "Beitun District", "parcel_count": 3460, "total_area_ha": 1056.44}, "geometry": {"type": "Point", "coordinates": [120.752919, 24.187274]}}, {"type": "Feature", "properties": {"county": "Taichung City", "township": "Tanzi District", "parcel_count": 6673, "total_area_ha": 945.66}, "geometry": {"type": "Point", "coordinates": [120.708264, 24.212897]}}, {"type": "Feature", "properties": {"county": "Taichung City", "township": "Xitun District", "parcel_count": 3895, "total_area_ha": 647.36}, "geometry": {"type": "Point", "coordinates": [120.627949, 24.188979]}}, {"type": "Feature", "properties": {"county": "Taichung City", "township": "Shigang District", "parcel_count": 3590, "total_area_ha": 614.62}, "geometry": {"type": "Point", "coordinates": [120.791644, 24.264783]}}, {"type": "Feature", "properties": {"county": "Taichung City", "township": "Dali District", "parcel_count": 4264, "total_area_ha": 600.76}, "geometry": {"type": "Point", "coordinates": [120.684914, 24.094197]}}, {"type": "Feature", "properties": {"county": "Taichung City", "township": "Wuqi District", "parcel_count": 3245, "total_area_ha": 570.27}, "geometry": {"type": "Point", "coordinates": [120.540734, 24.237541]}}, {"type": "Feature", "properties": {"county": "Taichung City", "township": "Nantun District", "parcel_count": 3343, "total_area_ha": 489.06}, "geometry": {"type": "Point", "coordinates": [120.61108, 24.138113]}}, {"type": "Feature", "properties": {"county": "Taichung City", "township": "South District", "parcel_count": 100, "total_area_ha": 18.11}, "geometry": {"type": "Point", "coordinates": [120.656978, 24.115977]}}, {"type": "Feature", "properties": {"county": "Taichung City", "township": "East District", "parcel_count": 143, "total_area_ha": 14.72}, "geometry": {"type": "Point", "coordinates": [120.702495, 24.136768]}}, {"type": "Feature", "properties": {"county": "Taichung City", "township": "North District", "parcel_count": 30, "total_area_ha": 2.6}, "geometry": {"type": "Point", "coordinates": [120.682058, 24.161654]}}, {"type": "Feature", "properties": {"county": "Taichung City", "township": "West District", "parcel_count": 12, "total_area_ha": 0.77}, "geometry": {"type": "Point", "coordinates": [120.661133, 24.142648]}}, {"type": "Feature", "properties": {"county": "Keelung City", "township": "Qidu District", "parcel_count": 1289, "total_area_ha": 266.53}, "geometry": {"type": "Point", "coordinates": [121.687109, 25.115257]}}, {"type": "Feature", "properties": {"county": "Keelung City", "township": "Anle District", "parcel_count": 409, "total_area_ha": 109.03}, "geometry": {"type": "Point", "coordinates": [121.709545, 25.136016]}}, {"type": "Feature", "properties": {"county": "Keelung City", "township": "Zhongshan District", "parcel_count": 318, "total_area_ha": 56.0}, "geometry": {"type": "Point", "coordinates": [121.724781, 25.150159]}}, {"type": "Feature", "properties": {"county": "Keelung City", "township": "Nuannuan District", "parcel_count": 227, "total_area_ha": 31.45}, "geometry": {"type": "Point", "coordinates": [121.741599, 25.092239]}}, {"type": "Feature", "properties": {"county": "Keelung City", "township": "Xinyi District", "parcel_count": 119, "total_area_ha": 21.96}, "geometry": {"type": "Point", "coordinates": [121.778506, 25.125627]}}, {"type": "Feature", "properties": {"county": "Keelung City", "township": "Zhongzheng District", "parcel_count": 104, "total_area_ha": 18.68}, "geometry": {"type": "Point", "coordinates": [121.788085, 25.138082]}}, {"type": "Feature", "properties": {"county": "Keelung City", "township": "Ren'ai District", "parcel_count": 53, "total_area_ha": 4.27}, "geometry": {"type": "Point", "coordinates": [121.7421, 25.118969]}}, {"type": "Feature", "properties": {"county": "Tainan City", "township": "Qigu District", "parcel_count": 16748, "total_area_ha": 9483.14}, "geometry": {"type": "Point", "coordinates": [120.105617, 23.12439]}}, {"type": "Feature", "properties": {"county": "Tainan City", "township": "Annan District", "parcel_count": 15759, "total_area_ha": 6613.37}, "geometry": {"type": "Point", "coordinates": [120.143096, 23.050093]}}, {"type": "Feature", "properties": {"county": "Tainan City", "township": "Baihe District", "parcel_count": 17332, "total_area_ha": 5810.94}, "geometry": {"type": "Point", "coordinates": [120.445204, 23.35801]}}, {"type": "Feature", "properties": {"county": "Tainan City", "township": "Houbi District", "parcel_count": 18038, "total_area_ha": 5462.35}, "geometry": {"type": "Point", "coordinates": [120.348049, 23.361886]}}, {"type": "Feature", "properties": {"county": "Tainan City", "township": "Dongshan District", "parcel_count": 14358, "total_area_ha": 5423.09}, "geometry": {"type": "Point", "coordinates": [120.430778, 23.287256]}}, {"type": "Feature", "properties": {"county": "Tainan City", "township": "Beimen District", "parcel_count": 7931, "total_area_ha": 4082.12}, "geometry": {"type": "Point", "coordinates": [120.130053, 23.279002]}}, {"type": "Feature", "properties": {"county": "Tainan City", "township": "Xuejia District", "parcel_count": 11895, "total_area_ha": 3821.19}, "geometry": {"type": "Point", "coordinates": [120.184921, 23.252497]}}, {"type": "Feature", "properties": {"county": "Tainan City", "township": "Yanshui District", "parcel_count": 12766, "total_area_ha": 3741.72}, "geometry": {"type": "Point", "coordinates": [120.247172, 23.297144]}}, {"type": "Feature", "properties": {"county": "Tainan City", "township": "Madou District", "parcel_count": 11429, "total_area_ha": 3656.11}, "geometry": {"type": "Point", "coordinates": [120.240535, 23.182043]}}, {"type": "Feature", "properties": {"county": "Tainan City", "township": "Nanxi District", "parcel_count": 9474, "total_area_ha": 3646.92}, "geometry": {"type": "Point", "coordinates": [120.509287, 23.178323]}}, {"type": "Feature", "properties": {"county": "Tainan City", "township": "Guiren District", "parcel_count": 12244, "total_area_ha": 3582.32}, "geometry": {"type": "Point", "coordinates": [120.294518, 22.944487]}}, {"type": "Feature", "properties": {"county": "Tainan City", "township": "Liuying District", "parcel_count": 12112, "total_area_ha": 3416.95}, "geometry": {"type": "Point", "coordinates": [120.347588, 23.27163]}}, {"type": "Feature", "properties": {"county": "Tainan City", "township": "Jiangjun District", "parcel_count": 10633, "total_area_ha": 3329.67}, "geometry": {"type": "Point", "coordinates": [120.129653, 23.206756]}}, {"type": "Feature", "properties": {"county": "Tainan City", "township": "Yujing District", "parcel_count": 8494, "total_area_ha": 3295.46}, "geometry": {"type": "Point", "coordinates": [120.457678, 23.114462]}}, {"type": "Feature", "properties": {"county": "Tainan City", "township": "Shanhua District", "parcel_count": 10154, "total_area_ha": 3286.8}, "geometry": {"type": "Point", "coordinates": [120.298678, 23.144171]}}, {"type": "Feature", "properties": {"county": "Tainan City", "township": "Nanhua District", "parcel_count": 9883, "total_area_ha": 3248.83}, "geometry": {"type": "Point", "coordinates": [120.500154, 23.069578]}}, {"type": "Feature", "properties": {"county": "Tainan City", "township": "Guantian District", "parcel_count": 10708, "total_area_ha": 3169.61}, "geometry": {"type": "Point", "coordinates": [120.335383, 23.192121]}}, {"type": "Feature", "properties": {"county": "Tainan City", "township": "Xinshi District", "parcel_count": 9189, "total_area_ha": 2880.3}, "geometry": {"type": "Point", "coordinates": [120.295639, 23.080705]}}, {"type": "Feature", "properties": {"county": "Tainan City", "township": "Guanmiao District", "parcel_count": 9490, "total_area_ha": 2631.4}, "geometry": {"type": "Point", "coordinates": [120.333618, 22.954838]}}, {"type": "Feature", "properties": {"county": "Tainan City", "township": "Xinhua District", "parcel_count": 10078, "total_area_ha": 2604.08}, "geometry": {"type": "Point", "coordinates": [120.326859, 23.03556]}}, {"type": "Feature", "properties": {"county": "Tainan City", "township": "Danei District", "parcel_count": 8518, "total_area_ha": 2597.21}, "geometry": {"type": "Point", "coordinates": [120.387653, 23.137082]}}, {"type": "Feature", "properties": {"county": "Tainan City", "township": "Jiali District", "parcel_count": 13401, "total_area_ha": 2589.22}, "geometry": {"type": "Point", "coordinates": [120.17865, 23.166874]}}, {"type": "Feature", "properties": {"county": "Tainan City", "township": "Xiaying District", "parcel_count": 9737, "total_area_ha": 2437.55}, "geometry": {"type": "Point", "coordinates": [120.264823, 23.230904]}}, {"type": "Feature", "properties": {"county": "Tainan City", "township": "Xigang District", "parcel_count": 8986, "total_area_ha": 2396.93}, "geometry": {"type": "Point", "coordinates": [120.200263, 23.125865]}}, {"type": "Feature", "properties": {"county": "Tainan City", "township": "Liujia District", "parcel_count": 7773, "total_area_ha": 2390.19}, "geometry": {"type": "Point", "coordinates": [120.35179, 23.235093]}}, {"type": "Feature", "properties": {"county": "Tainan City", "township": "Rende District", "parcel_count": 7109, "total_area_ha": 2243.25}, "geometry": {"type": "Point", "coordinates": [120.243202, 22.937636]}}, {"type": "Feature", "properties": {"county": "Tainan City", "township": "Anding District", "parcel_count": 8619, "total_area_ha": 1982.04}, "geometry": {"type": "Point", "coordinates": [120.227325, 23.097445]}}, {"type": "Feature", "properties": {"county": "Tainan City", "township": "Xinying District", "parcel_count": 7491, "total_area_ha": 1936.26}, "geometry": {"type": "Point", "coordinates": [120.290465, 23.299279]}}, {"type": "Feature", "properties": {"county": "Tainan City", "township": "Zuozhen District", "parcel_count": 5065, "total_area_ha": 1574.05}, "geometry": {"type": "Point", "coordinates": [120.408828, 23.03573]}}, {"type": "Feature", "properties": {"county": "Tainan City", "township": "Shanshang District", "parcel_count": 4433, "total_area_ha": 1227.71}, "geometry": {"type": "Point", "coordinates": [120.362668, 23.098518]}}, {"type": "Feature", "properties": {"county": "Tainan City", "township": "Longqi District", "parcel_count": 2309, "total_area_ha": 1118.85}, "geometry": {"type": "Point", "coordinates": [120.378949, 22.955998]}}, {"type": "Feature", "properties": {"county": "Tainan City", "township": "Yongkang District", "parcel_count": 3322, "total_area_ha": 849.03}, "geometry": {"type": "Point", "coordinates": [120.263913, 23.029034]}}, {"type": "Feature", "properties": {"county": "Tainan City", "township": "South District", "parcel_count": 2492, "total_area_ha": 546.36}, "geometry": {"type": "Point", "coordinates": [120.188575, 22.945625]}}, {"type": "Feature", "properties": {"county": "Tainan City", "township": "West Central District", "parcel_count": 46, "total_area_ha": 22.78}, "geometry": {"type": "Point", "coordinates": [120.173233, 23.002855]}}, {"type": "Feature", "properties": {"county": "Tainan City", "township": "Anping District", "parcel_count": 114, "total_area_ha": 22.74}, "geometry": {"type": "Point", "coordinates": [120.159845, 22.986314]}}, {"type": "Feature", "properties": {"county": "Tainan City", "township": "East District", "parcel_count": 60, "total_area_ha": 16.18}, "geometry": {"type": "Point", "coordinates": [120.223371, 22.969879]}}, {"type": "Feature", "properties": {"county": "Tainan City", "township": "North District", "parcel_count": 32, "total_area_ha": 7.32}, "geometry": {"type": "Point", "coordinates": [120.185608, 23.009493]}}, {"type": "Feature", "properties": {"county": "Kaohsiung City", "township": "Meinong District", "parcel_count": 24078, "total_area_ha": 4691.78}, "geometry": {"type": "Point", "coordinates": [120.547362, 22.880491]}}, {"type": "Feature", "properties": {"county": "Kaohsiung City", "township": "Qishan District", "parcel_count": 9929, "total_area_ha": 3558.62}, "geometry": {"type": "Point", "coordinates": [120.483311, 22.864298]}}, {"type": "Feature", "properties": {"county": "Kaohsiung City", "township": "Daliao District", "parcel_count": 11979, "total_area_ha": 2855.59}, "geometry": {"type": "Point", "coordinates": [120.415109, 22.595505]}}, {"type": "Feature", "properties": {"county": "Kaohsiung City", "township": "Luzhu District", "parcel_count": 12355, "total_area_ha": 2755.37}, "geometry": {"type": "Point", "coordinates": [120.266654, 22.861008]}}, {"type": "Feature", "properties": {"county": "Kaohsiung City", "township": "Shanlin District", "parcel_count": 8867, "total_area_ha": 2710.59}, "geometry": {"type": "Point", "coordinates": [120.557816, 22.989448]}}, {"type": "Feature", "properties": {"county": "Kaohsiung City", "township": "Dashu District", "parcel_count": 9440, "total_area_ha": 2674.46}, "geometry": {"type": "Point", "coordinates": [120.425482, 22.711145]}}, {"type": "Feature", "properties": {"county": "Kaohsiung City", "township": "Yanchao District", "parcel_count": 7891, "total_area_ha": 2614.96}, "geometry": {"type": "Point", "coordinates": [120.360176, 22.785421]}}, {"type": "Feature", "properties": {"county": "Kaohsiung City", "township": "Neimen District", "parcel_count": 11030, "total_area_ha": 2495.68}, "geometry": {"type": "Point", "coordinates": [120.473727, 22.960097]}}, {"type": "Feature", "properties": {"county": "Kaohsiung City", "township": "Liugui District", "parcel_count": 9174, "total_area_ha": 2157.91}, "geometry": {"type": "Point", "coordinates": [120.655647, 22.993271]}}, {"type": "Feature", "properties": {"county": "Kaohsiung City", "township": "Alian District", "parcel_count": 9128, "total_area_ha": 2157.55}, "geometry": {"type": "Point", "coordinates": [120.318896, 22.869589]}}, {"type": "Feature", "properties": {"county": "Kaohsiung City", "township": "Gangshan District", "parcel_count": 5264, "total_area_ha": 1823.59}, "geometry": {"type": "Point", "coordinates": [120.300817, 22.806699]}}, {"type": "Feature", "properties": {"county": "Kaohsiung City", "township": "Tianliao District", "parcel_count": 5961, "total_area_ha": 1555.66}, "geometry": {"type": "Point", "coordinates": [120.388313, 22.860255]}}, {"type": "Feature", "properties": {"county": "Kaohsiung City", "township": "Namaxia District", "parcel_count": 2906, "total_area_ha": 1506.84}, "geometry": {"type": "Point", "coordinates": [120.69294, 23.256732]}}, {"type": "Feature", "properties": {"county": "Kaohsiung City", "township": "Taoyuan District", "parcel_count": 1981, "total_area_ha": 1435.54}, "geometry": {"type": "Point", "coordinates": [120.765019, 23.168381]}}, {"type": "Feature", "properties": {"county": "Kaohsiung City", "township": "Yong'an District", "parcel_count": 4989, "total_area_ha": 1377.67}, "geometry": {"type": "Point", "coordinates": [120.22922, 22.820965]}}, {"type": "Feature", "properties": {"county": "Kaohsiung City", "township": "Qiaotou District", "parcel_count": 4528, "total_area_ha": 1294.13}, "geometry": {"type": "Point", "coordinates": [120.297294, 22.753588]}}, {"type": "Feature", "properties": {"county": "Kaohsiung City", "township": "Hunei District", "parcel_count": 4511, "total_area_ha": 1288.28}, "geometry": {"type": "Point", "coordinates": [120.225107, 22.892225]}}, {"type": "Feature", "properties": {"county": "Kaohsiung City", "township": "Jiaxian District", "parcel_count": 2764, "total_area_ha": 1166.6}, "geometry": {"type": "Point", "coordinates": [120.598523, 23.092451]}}, {"type": "Feature", "properties": {"county": "Kaohsiung City", "township": "Linyuan District", "parcel_count": 5383, "total_area_ha": 949.07}, "geometry": {"type": "Point", "coordinates": [120.397263, 22.511078]}}, {"type": "Feature", "properties": {"county": "Kaohsiung City", "township": "Dashe District", "parcel_count": 3702, "total_area_ha": 915.16}, "geometry": {"type": "Point", "coordinates": [120.368052, 22.74155]}}, {"type": "Feature", "properties": {"county": "Kaohsiung City", "township": "Mituo District", "parcel_count": 2960, "total_area_ha": 812.85}, "geometry": {"type": "Point", "coordinates": [120.237041, 22.779833]}}, {"type": "Feature", "properties": {"county": "Kaohsiung City", "township": "Ziguan District", "parcel_count": 5261, "total_area_ha": 589.4}, "geometry": {"type": "Point", "coordinates": [120.26012, 22.750245]}}, {"type": "Feature", "properties": {"county": "Kaohsiung City", "township": "Renwu District", "parcel_count": 1529, "total_area_ha": 557.78}, "geometry": {"type": "Point", "coordinates": [120.359847, 22.70243]}}, {"type": "Feature", "properties": {"county": "Kaohsiung City", "township": "Qieding District", "parcel_count": 1124, "total_area_ha": 530.5}, "geometry": {"type": "Point", "coordinates": [120.201986, 22.884438]}}, {"type": "Feature", "properties": {"county": "Kaohsiung City", "township": "Niaosong District", "parcel_count": 2560, "total_area_ha": 508.63}, "geometry": {"type": "Point", "coordinates": [120.381126, 22.659755]}}, {"type": "Feature", "properties": {"county": "Kaohsiung City", "township": "Nanzi District", "parcel_count": 1225, "total_area_ha": 333.52}, "geometry": {"type": "Point", "coordinates": [120.285322, 22.726928]}}, {"type": "Feature", "properties": {"county": "Kaohsiung City", "township": "Xiaogang District", "parcel_count": 1689, "total_area_ha": 272.89}, "geometry": {"type": "Point", "coordinates": [120.369255, 22.567105]}}, {"type": "Feature", "properties": {"county": "Kaohsiung City", "township": "Maolin District", "parcel_count": 333, "total_area_ha": 179.54}, "geometry": {"type": "Point", "coordinates": [120.683909, 22.902181]}}, {"type": "Feature", "properties": {"county": "Kaohsiung City", "township": "Fengshan District", "parcel_count": 820, "total_area_ha": 144.65}, "geometry": {"type": "Point", "coordinates": [120.359591, 22.618004]}}, {"type": "Feature", "properties": {"county": "Kaohsiung City", "township": "Sanmin District", "parcel_count": 188, "total_area_ha": 30.61}, "geometry": {"type": "Point", "coordinates": [120.329938, 22.670458]}}, {"type": "Feature", "properties": {"county": "Kaohsiung City", "township": "Zuoying District", "parcel_count": 184, "total_area_ha": 10.59}, "geometry": {"type": "Point", "coordinates": [120.30431, 22.682823]}}, {"type": "Feature", "properties": {"county": "Kaohsiung City", "township": "Qianzhen District", "parcel_count": 100, "total_area_ha": 8.19}, "geometry": {"type": "Point", "coordinates": [120.327593, 22.588063]}}, {"type": "Feature", "properties": {"county": "Kaohsiung City", "township": "Gushan District", "parcel_count": 79, "total_area_ha": 7.46}, "geometry": {"type": "Point", "coordinates": [120.289705, 22.654964]}}, {"type": "Feature", "properties": {"county": "Kaohsiung City", "township": "Lingya District", "parcel_count": 26, "total_area_ha": 1.47}, "geometry": {"type": "Point", "coordinates": [120.325738, 22.620163]}}, {"type": "Feature", "properties": {"county": "Kaohsiung City", "township": "Qijin District", "parcel_count": 32, "total_area_ha": 1.3}, "geometry": {"type": "Point", "coordinates": [120.282736, 22.594035]}}, {"type": "Feature", "properties": {"county": "Kaohsiung City", "township": "Qianjin District", "parcel_count": 1, "total_area_ha": 0.03}, "geometry": {"type": "Point", "coordinates": [120.294883, 22.627778]}}, {"type": "Feature", "properties": {"county": "Kaohsiung City", "township": "Yancheng District", "parcel_count": 1, "total_area_ha": 0.01}, "geometry": {"type": "Point", "coordinates": [120.286454, 22.628203]}}, {"type": "Feature", "properties": {"county": "New Taipei City", "township": "Sanxia District", "parcel_count": 6940, "total_area_ha": 2042.6}, "geometry": {"type": "Point", "coordinates": [121.409669, 24.895865]}}, {"type": "Feature", "properties": {"county": "New Taipei City", "township": "Tamsui District", "parcel_count": 10803, "total_area_ha": 1568.34}, "geometry": {"type": "Point", "coordinates": [121.466228, 25.202354]}}, {"type": "Feature", "properties": {"county": "New Taipei City", "township": "Sanzhi District", "parcel_count": 9665, "total_area_ha": 1326.14}, "geometry": {"type": "Point", "coordinates": [121.506032, 25.241369]}}, {"type": "Feature", "properties": {"county": "New Taipei City", "township": "Xindian District", "parcel_count": 3390, "total_area_ha": 822.2}, "geometry": {"type": "Point", "coordinates": [121.537646, 24.935394]}}, {"type": "Feature", "properties": {"county": "New Taipei City", "township": "Pinglin District", "parcel_count": 4501, "total_area_ha": 811.34}, "geometry": {"type": "Point", "coordinates": [121.71394, 24.939316]}}, {"type": "Feature", "properties": {"county": "New Taipei City", "township": "Shimen District", "parcel_count": 2988, "total_area_ha": 765.01}, "geometry": {"type": "Point", "coordinates": [121.563425, 25.269766]}}, {"type": "Feature", "properties": {"county": "New Taipei City", "township": "Jinshan District", "parcel_count": 3575, "total_area_ha": 700.33}, "geometry": {"type": "Point", "coordinates": [121.614731, 25.227428]}}, {"type": "Feature", "properties": {"county": "New Taipei City", "township": "Shuangxi District", "parcel_count": 3318, "total_area_ha": 609.59}, "geometry": {"type": "Point", "coordinates": [121.841867, 25.016322]}}, {"type": "Feature", "properties": {"county": "New Taipei City", "township": "Linkou District", "parcel_count": 2579, "total_area_ha": 603.87}, "geometry": {"type": "Point", "coordinates": [121.352965, 25.102926]}}, {"type": "Feature", "properties": {"county": "New Taipei City", "township": "Wanli District", "parcel_count": 2619, "total_area_ha": 569.45}, "geometry": {"type": "Point", "coordinates": [121.64352, 25.180189]}}, {"type": "Feature", "properties": {"county": "New Taipei City", "township": "Bali District", "parcel_count": 2185, "total_area_ha": 558.59}, "geometry": {"type": "Point", "coordinates": [121.409007, 25.135103]}}, {"type": "Feature", "properties": {"county": "New Taipei City", "township": "Gongliao District", "parcel_count": 4220, "total_area_ha": 513.34}, "geometry": {"type": "Point", "coordinates": [121.911623, 25.020727]}}, {"type": "Feature", "properties": {"county": "New Taipei City", "township": "Wugu District", "parcel_count": 1376, "total_area_ha": 488.73}, "geometry": {"type": "Point", "coordinates": [121.427107, 25.103648]}}, {"type": "Feature", "properties": {"county": "New Taipei City", "township": "Shiding District", "parcel_count": 2268, "total_area_ha": 434.76}, "geometry": {"type": "Point", "coordinates": [121.660723, 24.974661]}}, {"type": "Feature", "properties": {"county": "New Taipei City", "township": "Xizhi District", "parcel_count": 1986, "total_area_ha": 397.94}, "geometry": {"type": "Point", "coordinates": [121.649439, 25.067323]}}, {"type": "Feature", "properties": {"county": "New Taipei City", "township": "Shulin District", "parcel_count": 2537, "total_area_ha": 393.38}, "geometry": {"type": "Point", "coordinates": [121.395398, 24.970037]}}, {"type": "Feature", "properties": {"county": "New Taipei City", "township": "Shenkeng District", "parcel_count": 885, "total_area_ha": 307.05}, "geometry": {"type": "Point", "coordinates": [121.615898, 25.003705]}}, {"type": "Feature", "properties": {"county": "New Taipei City", "township": "Yingge District", "parcel_count": 1857, "total_area_ha": 260.86}, "geometry": {"type": "Point", "coordinates": [121.341698, 24.949747]}}, {"type": "Feature", "properties": {"county": "New Taipei City", "township": "Tucheng District", "parcel_count": 1330, "total_area_ha": 257.48}, "geometry": {"type": "Point", "coordinates": [121.448854, 24.963578]}}, {"type": "Feature", "properties": {"county": "New Taipei City", "township": "Pingxi District", "parcel_count": 1249, "total_area_ha": 158.57}, "geometry": {"type": "Point", "coordinates": [121.752358, 25.026569]}}, {"type": "Feature", "properties": {"county": "New Taipei City", "township": "Ruifang District", "parcel_count": 1095, "total_area_ha": 157.38}, "geometry": {"type": "Point", "coordinates": [121.803107, 25.100892]}}, {"type": "Feature", "properties": {"county": "New Taipei City", "township": "Wulai District", "parcel_count": 481, "total_area_ha": 117.97}, "geometry": {"type": "Point", "coordinates": [121.52651, 24.832662]}}, {"type": "Feature", "properties": {"county": "New Taipei City", "township": "Xinzhuang District", "parcel_count": 788, "total_area_ha": 106.33}, "geometry": {"type": "Point", "coordinates": [121.434395, 25.031271]}}, {"type": "Feature", "properties": {"county": "New Taipei City", "township": "Zhonghe District", "parcel_count": 504, "total_area_ha": 86.77}, "geometry": {"type": "Point", "coordinates": [121.488938, 24.982667]}}, {"type": "Feature", "properties": {"county": "New Taipei City", "township": "Taishan District", "parcel_count": 397, "total_area_ha": 70.54}, "geometry": {"type": "Point", "coordinates": [121.422585, 25.05315]}}, {"type": "Feature", "properties": {"county": "New Taipei City", "township": "Luzhou District", "parcel_count": 456, "total_area_ha": 52.05}, "geometry": {"type": "Point", "coordinates": [121.47749, 25.09322]}}, {"type": "Feature", "properties": {"county": "New Taipei City", "township": "Banqiao District", "parcel_count": 209, "total_area_ha": 36.21}, "geometry": {"type": "Point", "coordinates": [121.45008, 25.005086]}}, {"type": "Feature", "properties": {"county": "New Taipei City", "township": "Yonghe District", "parcel_count": 56, "total_area_ha": 9.32}, "geometry": {"type": "Point", "coordinates": [121.526737, 25.007597]}}, {"type": "Feature", "properties": {"county": "New Taipei City", "township": "Sanchong District", "parcel_count": 80, "total_area_ha": 5.56}, "geometry": {"type": "Point", "coordinates": [121.483654, 25.069139]}}, {"type": "Feature", "properties": {"county": "Yilan County", "township": "Sanxing Township", "parcel_count": 18284, "total_area_ha": 3913.02}, "geometry": {"type": "Point", "coordinates": [121.67378, 24.673809]}}, {"type": "Feature", "properties": {"county": "Yilan County", "township": "Dongshan Township", "parcel_count": 14386, "total_area_ha": 3057.47}, "geometry": {"type": "Point", "coordinates": [121.765992, 24.648571]}}, {"type": "Feature", "properties": {"county": "Yilan County", "township": "Yuanshan Township", "parcel_count": 14308, "total_area_ha": 2694.48}, "geometry": {"type": "Point", "coordinates": [121.702772, 24.73373]}}, {"type": "Feature", "properties": {"county": "Yilan County", "township": "Zhuangwei Township", "parcel_count": 11848, "total_area_ha": 2603.7}, "geometry": {"type": "Point", "coordinates": [121.799365, 24.754262]}}, {"type": "Feature", "properties": {"county": "Yilan County", "township": "Jiaoxi Township", "parcel_count": 11141, "total_area_ha": 2298.05}, "geometry": {"type": "Point", "coordinates": [121.774914, 24.804146]}}, {"type": "Feature", "properties": {"county": "Yilan County", "township": "Datong Township", "parcel_count": 4311, "total_area_ha": 2118.68}, "geometry": {"type": "Point", "coordinates": [121.508377, 24.569472]}}, {"type": "Feature", "properties": {"county": "Yilan County", "township": "Wujie Township", "parcel_count": 8546, "total_area_ha": 1788.84}, "geometry": {"type": "Point", "coordinates": [121.801812, 24.691298]}}, {"type": "Feature", "properties": {"county": "Yilan County", "township": "Yilan City", "parcel_count": 7406, "total_area_ha": 1452.85}, "geometry": {"type": "Point", "coordinates": [121.759282, 24.749183]}}, {"type": "Feature", "properties": {"county": "Yilan County", "township": "Su'ao Township", "parcel_count": 4736, "total_area_ha": 842.03}, "geometry": {"type": "Point", "coordinates": [121.824694, 24.567909]}}, {"type": "Feature", "properties": {"county": "Yilan County", "township": "Toucheng Township", "parcel_count": 5619, "total_area_ha": 795.64}, "geometry": {"type": "Point", "coordinates": [121.810931, 24.845054]}}, {"type": "Feature", "properties": {"county": "Yilan County", "township": "Luodong Township", "parcel_count": 2623, "total_area_ha": 448.27}, "geometry": {"type": "Point", "coordinates": [121.772971, 24.679925]}}, {"type": "Feature", "properties": {"county": "Yilan County", "township": "Nan'ao Township", "parcel_count": 1807, "total_area_ha": 408.67}, "geometry": {"type": "Point", "coordinates": [121.771817, 24.447398]}}, {"type": "Feature", "properties": {"county": "Taoyuan City", "township": "Xinwu District", "parcel_count": 26189, "total_area_ha": 5167.74}, "geometry": {"type": "Point", "coordinates": [121.066907, 24.973148]}}, {"type": "Feature", "properties": {"county": "Taoyuan City", "township": "Guanyin District", "parcel_count": 19719, "total_area_ha": 3979.61}, "geometry": {"type": "Point", "coordinates": [121.119016, 25.017252]}}, {"type": "Feature", "properties": {"county": "Taoyuan City", "township": "Dayuan District", "parcel_count": 16817, "total_area_ha": 3249.32}, "geometry": {"type": "Point", "coordinates": [121.207235, 25.060248]}}, {"type": "Feature", "properties": {"county": "Taoyuan City", "township": "Yangmei District", "parcel_count": 14345, "total_area_ha": 2905.89}, "geometry": {"type": "Point", "coordinates": [121.114397, 24.924006]}}, {"type": "Feature", "properties": {"county": "Taoyuan City", "township": "Zhongli District", "parcel_count": 15781, "total_area_ha": 2461.35}, "geometry": {"type": "Point", "coordinates": [121.202324, 24.988779]}}, {"type": "Feature", "properties": {"county": "Taoyuan City", "township": "Luzhu District", "parcel_count": 12792, "total_area_ha": 1956.4}, "geometry": {"type": "Point", "coordinates": [121.269998, 25.048005]}}, {"type": "Feature", "properties": {"county": "Taoyuan City", "township": "Longtan District", "parcel_count": 8858, "total_area_ha": 1684.21}, "geometry": {"type": "Point", "coordinates": [121.215051, 24.85372]}}, {"type": "Feature", "properties": {"county": "Taoyuan City", "township": "Daxi District", "parcel_count": 10246, "total_area_ha": 1584.13}, "geometry": {"type": "Point", "coordinates": [121.28255, 24.888065]}}, {"type": "Feature", "properties": {"county": "Taoyuan City", "township": "Pingzhen District", "parcel_count": 9168, "total_area_ha": 1443.52}, "geometry": {"type": "Point", "coordinates": [121.215418, 24.918818]}}, {"type": "Feature", "properties": {"county": "Taoyuan City", "township": "Bade District", "parcel_count": 7377, "total_area_ha": 1221.09}, "geometry": {"type": "Point", "coordinates": [121.286265, 24.948719]}}, {"type": "Feature", "properties": {"county": "Taoyuan City", "township": "Fuxing District", "parcel_count": 2221, "total_area_ha": 974.58}, "geometry": {"type": "Point", "coordinates": [121.376407, 24.727753]}}, {"type": "Feature", "properties": {"county": "Taoyuan City", "township": "Taoyuan District", "parcel_count": 3117, "total_area_ha": 574.31}, "geometry": {"type": "Point", "coordinates": [121.28642, 24.997009]}}, {"type": "Feature", "properties": {"county": "Taoyuan City", "township": "Guishan District", "parcel_count": 1608, "total_area_ha": 300.74}, "geometry": {"type": "Point", "coordinates": [121.345605, 25.03417]}}, {"type": "Feature", "properties": {"county": "Chiayi City", "township": "West District", "parcel_count": 7007, "total_area_ha": 1248.93}, "geometry": {"type": "Point", "coordinates": [120.418077, 23.483099]}}, {"type": "Feature", "properties": {"county": "Chiayi City", "township": "East District", "parcel_count": 3116, "total_area_ha": 685.01}, "geometry": {"type": "Point", "coordinates": [120.473948, 23.485376]}}, {"type": "Feature", "properties": {"county": "Hsinchu County", "township": "Xinfeng Township", "parcel_count": 11605, "total_area_ha": 2300.92}, "geometry": {"type": "Point", "coordinates": [121.004534, 24.915403]}}, {"type": "Feature", "properties": {"county": "Hsinchu County", "township": "Guanxi Township", "parcel_count": 11323, "total_area_ha": 2030.22}, "geometry": {"type": "Point", "coordinates": [121.170513, 24.791744]}}, {"type": "Feature", "properties": {"county": "Hsinchu County", "township": "Xinpu Township", "parcel_count": 11689, "total_area_ha": 1780.16}, "geometry": {"type": "Point", "coordinates": [121.090329, 24.839351]}}, {"type": "Feature", "properties": {"county": "Hsinchu County", "township": "Zhubei City", "parcel_count": 12443, "total_area_ha": 1721.67}, "geometry": {"type": "Point", "coordinates": [120.989197, 24.84027]}}, {"type": "Feature", "properties": {"county": "Hsinchu County", "township": "Hukou Township", "parcel_count": 10125, "total_area_ha": 1674.04}, "geometry": {"type": "Point", "coordinates": [121.052696, 24.897853]}}, {"type": "Feature", "properties": {"county": "Hsinchu County", "township": "Zhudong Township", "parcel_count": 8850, "total_area_ha": 1209.97}, "geometry": {"type": "Point", "coordinates": [121.061176, 24.755723]}}, {"type": "Feature", "properties": {"county": "Hsinchu County", "township": "Jianshi Township", "parcel_count": 6721, "total_area_ha": 1094.84}, "geometry": {"type": "Point", "coordinates": [121.260401, 24.656295]}}, {"type": "Feature", "properties": {"county": "Hsinchu County", "township": "Baoshan Township", "parcel_count": 5163, "total_area_ha": 1091.28}, "geometry": {"type": "Point", "coordinates": [120.992394, 24.734333]}}, {"type": "Feature", "properties": {"county": "Hsinchu County", "township": "Qionglin Township", "parcel_count": 7480, "total_area_ha": 1067.18}, "geometry": {"type": "Point", "coordinates": [121.097807, 24.767095]}}, {"type": "Feature", "properties": {"county": "Hsinchu County", "township": "Hengshan Township", "parcel_count": 5680, "total_area_ha": 1039.77}, "geometry": {"type": "Point", "coordinates": [121.140633, 24.71216]}}, {"type": "Feature", "properties": {"county": "Hsinchu County", "township": "Emei Township", "parcel_count": 4961, "total_area_ha": 950.6}, "geometry": {"type": "Point", "coordinates": [121.007597, 24.687373]}}, {"type": "Feature", "properties": {"county": "Hsinchu County", "township": "Wufeng Township", "parcel_count": 2776, "total_area_ha": 683.37}, "geometry": {"type": "Point", "coordinates": [121.121119, 24.605292]}}, {"type": "Feature", "properties": {"county": "Hsinchu County", "township": "Beipu Township", "parcel_count": 3000, "total_area_ha": 647.51}, "geometry": {"type": "Point", "coordinates": [121.06168, 24.690352]}}, {"type": "Feature", "properties": {"county": "Miaoli County", "township": "Houlong Township", "parcel_count": 16525, "total_area_ha": 2852.31}, "geometry": {"type": "Point", "coordinates": [120.787255, 24.623715]}}, {"type": "Feature", "properties": {"county": "Miaoli County", "township": "Yuanli Township", "parcel_count": 14412, "total_area_ha": 2680.27}, "geometry": {"type": "Point", "coordinates": [120.677007, 24.411524]}}, {"type": "Feature", "properties": {"county": "Miaoli County", "township": "Zhuolan Township", "parcel_count": 7720, "total_area_ha": 2465.93}, "geometry": {"type": "Point", "coordinates": [120.848206, 24.321502]}}, {"type": "Feature", "properties": {"county": "Miaoli County", "township": "Tongxiao Township", "parcel_count": 12773, "total_area_ha": 2348.2}, "geometry": {"type": "Point", "coordinates": [120.705646, 24.482563]}}, {"type": "Feature", "properties": {"county": "Miaoli County", "township": "Dahu Township", "parcel_count": 11321, "total_area_ha": 1820.3}, "geometry": {"type": "Point", "coordinates": [120.86396, 24.388659]}}, {"type": "Feature", "properties": {"county": "Miaoli County", "township": "Gongguan Township", "parcel_count": 13834, "total_area_ha": 1628.82}, "geometry": {"type": "Point", "coordinates": [120.832558, 24.503684]}}, {"type": "Feature", "properties": {"county": "Miaoli County", "township": "Tongluo Township", "parcel_count": 9222, "total_area_ha": 1353.2}, "geometry": {"type": "Point", "coordinates": [120.795627, 24.474433]}}, {"type": "Feature", "properties": {"county": "Miaoli County", "township": "Toufen City", "parcel_count": 8107, "total_area_ha": 1289.61}, "geometry": {"type": "Point", "coordinates": [120.920645, 24.680178]}}, {"type": "Feature", "properties": {"county": "Miaoli County", "township": "Tai'an Township", "parcel_count": 4968, "total_area_ha": 1116.42}, "geometry": {"type": "Point", "coordinates": [120.938353, 24.412739]}}, {"type": "Feature", "properties": {"county": "Miaoli County", "township": "Zhunan Township", "parcel_count": 5830, "total_area_ha": 1043.79}, "geometry": {"type": "Point", "coordinates": [120.873359, 24.69523]}}, {"type": "Feature", "properties": {"county": "Miaoli County", "township": "Xihu Township", "parcel_count": 6717, "total_area_ha": 898.03}, "geometry": {"type": "Point", "coordinates": [120.758819, 24.54248]}}, {"type": "Feature", "properties": {"county": "Miaoli County", "township": "Sanwan Township", "parcel_count": 4440, "total_area_ha": 828.52}, "geometry": {"type": "Point", "coordinates": [120.951126, 24.642092]}}, {"type": "Feature", "properties": {"county": "Miaoli County", "township": "Zaoqiao Township", "parcel_count": 4894, "total_area_ha": 781.89}, "geometry": {"type": "Point", "coordinates": [120.86086, 24.633404]}}, {"type": "Feature", "properties": {"county": "Miaoli County", "township": "Sanyi Township", "parcel_count": 3921, "total_area_ha": 749.22}, "geometry": {"type": "Point", "coordinates": [120.769307, 24.382231]}}, {"type": "Feature", "properties": {"county": "Miaoli County", "township": "Miaoli City", "parcel_count": 5691, "total_area_ha": 739.14}, "geometry": {"type": "Point", "coordinates": [120.816296, 24.563777]}}, {"type": "Feature", "properties": {"county": "Miaoli County", "township": "Nanzhuang Township", "parcel_count": 3817, "total_area_ha": 717.73}, "geometry": {"type": "Point", "coordinates": [120.989791, 24.600818]}}, {"type": "Feature", "properties": {"county": "Miaoli County", "township": "Shitan Township", "parcel_count": 1894, "total_area_ha": 587.14}, "geometry": {"type": "Point", "coordinates": [120.919483, 24.515168]}}, {"type": "Feature", "properties": {"county": "Miaoli County", "township": "Touwu Township", "parcel_count": 2729, "total_area_ha": 486.3}, "geometry": {"type": "Point", "coordinates": [120.869455, 24.577383]}}, {"type": "Feature", "properties": {"county": "Nantou County", "township": "Guoxing Township", "parcel_count": 13032, "total_area_ha": 5803.66}, "geometry": {"type": "Point", "coordinates": [120.861281, 24.034789]}}, {"type": "Feature", "properties": {"county": "Nantou County", "township": "Zhushan Township", "parcel_count": 23554, "total_area_ha": 5753.69}, "geometry": {"type": "Point", "coordinates": [120.697913, 23.730499]}}, {"type": "Feature", "properties": {"county": "Nantou County", "township": "Zhongliao Township", "parcel_count": 11316, "total_area_ha": 5511.55}, "geometry": {"type": "Point", "coordinates": [120.7851, 23.905407]}}, {"type": "Feature", "properties": {"county": "Nantou County", "township": "Mingjian Township", "parcel_count": 29979, "total_area_ha": 5093.64}, "geometry": {"type": "Point", "coordinates": [120.672017, 23.850064]}}, {"type": "Feature", "properties": {"county": "Nantou County", "township": "Ren'ai Township", "parcel_count": 16073, "total_area_ha": 4982.49}, "geometry": {"type": "Point", "coordinates": [121.133515, 24.060377]}}, {"type": "Feature", "properties": {"county": "Nantou County", "township": "Puli Township", "parcel_count": 20614, "total_area_ha": 4970.65}, "geometry": {"type": "Point", "coordinates": [120.952067, 23.981987]}}, {"type": "Feature", "properties": {"county": "Nantou County", "township": "Caotun Township", "parcel_count": 23365, "total_area_ha": 4522.11}, "geometry": {"type": "Point", "coordinates": [120.722948, 23.98262]}}, {"type": "Feature", "properties": {"county": "Nantou County", "township": "Xinyi Township", "parcel_count": 12178, "total_area_ha": 4005.1}, "geometry": {"type": "Point", "coordinates": [120.886868, 23.668389]}}, {"type": "Feature", "properties": {"county": "Nantou County", "township": "Shuili Township", "parcel_count": 4996, "total_area_ha": 2979.74}, "geometry": {"type": "Point", "coordinates": [120.859951, 23.800311]}}, {"type": "Feature", "properties": {"county": "Nantou County", "township": "Yuchi Township", "parcel_count": 7008, "total_area_ha": 2932.83}, "geometry": {"type": "Point", "coordinates": [120.927, 23.886805]}}, {"type": "Feature", "properties": {"county": "Nantou County", "township": "Lugu Township", "parcel_count": 8349, "total_area_ha": 2817.8}, "geometry": {"type": "Point", "coordinates": [120.770546, 23.749019]}}, {"type": "Feature", "properties": {"county": "Nantou County", "township": "Nantou City", "parcel_count": 11094, "total_area_ha": 2569.79}, "geometry": {"type": "Point", "coordinates": [120.675119, 23.91522]}}, {"type": "Feature", "properties": {"county": "Nantou County", "township": "Jiji Township", "parcel_count": 4503, "total_area_ha": 1615.56}, "geometry": {"type": "Point", "coordinates": [120.785763, 23.837179]}}, {"type": "Feature", "properties": {"county": "Changhua County", "township": "Fangyuan Township", "parcel_count": 21532, "total_area_ha": 7442.22}, "geometry": {"type": "Point", "coordinates": [120.354598, 23.954303]}}, {"type": "Feature", "properties": {"county": "Changhua County", "township": "Erlin Township", "parcel_count": 23126, "total_area_ha": 7076.46}, "geometry": {"type": "Point", "coordinates": [120.404689, 23.91678]}}, {"type": "Feature", "properties": {"county": "Changhua County", "township": "Xizhou Township", "parcel_count": 19098, "total_area_ha": 4347.05}, "geometry": {"type": "Point", "coordinates": [120.521861, 23.830603]}}, {"type": "Feature", "properties": {"county": "Changhua County", "township": "Dacheng Township", "parcel_count": 11616, "total_area_ha": 3667.23}, "geometry": {"type": "Point", "coordinates": [120.315876, 23.856207]}}, {"type": "Feature", "properties": {"county": "Changhua County", "township": "Fuxing Township", "parcel_count": 15403, "total_area_ha": 3393.63}, "geometry": {"type": "Point", "coordinates": [120.429946, 24.029447]}}, {"type": "Feature", "properties": {"county": "Changhua County", "township": "Pitou Township", "parcel_count": 15165, "total_area_ha": 3124.91}, "geometry": {"type": "Point", "coordinates": [120.466704, 23.881991]}}, {"type": "Feature", "properties": {"county": "Changhua County", "township": "Zhutang Township", "parcel_count": 11054, "total_area_ha": 3005.12}, "geometry": {"type": "Point", "coordinates": [120.414265, 23.853086]}}, {"type": "Feature", "properties": {"county": "Changhua County", "township": "Lukang Township", "parcel_count": 12814, "total_area_ha": 2918.43}, "geometry": {"type": "Point", "coordinates": [120.450477, 24.082752]}}, {"type": "Feature", "properties": {"county": "Changhua County", "township": "Puyan Township", "parcel_count": 12751, "total_area_ha": 2716.35}, "geometry": {"type": "Point", "coordinates": [120.458993, 23.992105]}}, {"type": "Feature", "properties": {"county": "Changhua County", "township": "Hemei Township", "parcel_count": 12410, "total_area_ha": 2151.08}, "geometry": {"type": "Point", "coordinates": [120.510693, 24.112926]}}, {"type": "Feature", "properties": {"county": "Changhua County", "township": "Changhua City", "parcel_count": 10761, "total_area_ha": 1891.16}, "geometry": {"type": "Point", "coordinates": [120.570329, 24.079213]}}, {"type": "Feature", "properties": {"county": "Changhua County", "township": "Tianzhong Township", "parcel_count": 13923, "total_area_ha": 1888.02}, "geometry": {"type": "Point", "coordinates": [120.583486, 23.856065]}}, {"type": "Feature", "properties": {"county": "Changhua County", "township": "Xihu Township", "parcel_count": 10215, "total_area_ha": 1818.38}, "geometry": {"type": "Point", "coordinates": [120.48421, 23.949925]}}, {"type": "Feature", "properties": {"county": "Changhua County", "township": "Xiushui Township", "parcel_count": 8190, "total_area_ha": 1793.15}, "geometry": {"type": "Point", "coordinates": [120.504245, 24.031769]}}, {"type": "Feature", "properties": {"county": "Changhua County", "township": "Shetou Township", "parcel_count": 8201, "total_area_ha": 1767.28}, "geometry": {"type": "Point", "coordinates": [120.596125, 23.906546]}}, {"type": "Feature", "properties": {"county": "Changhua County", "township": "Shengang Township", "parcel_count": 7732, "total_area_ha": 1732.95}, "geometry": {"type": "Point", "coordinates": [120.484525, 24.164517]}}, {"type": "Feature", "properties": {"county": "Changhua County", "township": "Tianwei Township", "parcel_count": 11626, "total_area_ha": 1647.34}, "geometry": {"type": "Point", "coordinates": [120.521113, 23.901189]}}, {"type": "Feature", "properties": {"county": "Changhua County", "township": "Fenyuan Township", "parcel_count": 9660, "total_area_ha": 1533.08}, "geometry": {"type": "Point", "coordinates": [120.634225, 24.009528]}}, {"type": "Feature", "properties": {"county": "Changhua County", "township": "Dacun Township", "parcel_count": 8776, "total_area_ha": 1458.18}, "geometry": {"type": "Point", "coordinates": [120.547155, 23.991051]}}, {"type": "Feature", "properties": {"county": "Changhua County", "township": "Ershui Township", "parcel_count": 9737, "total_area_ha": 1421.2}, "geometry": {"type": "Point", "coordinates": [120.625203, 23.805479]}}, {"type": "Feature", "properties": {"county": "Changhua County", "township": "Yuanlin City", "parcel_count": 8272, "total_area_ha": 1360.09}, "geometry": {"type": "Point", "coordinates": [120.587943, 23.954327]}}, {"type": "Feature", "properties": {"county": "Changhua County", "township": "Huatan Township", "parcel_count": 6872, "total_area_ha": 1339.51}, "geometry": {"type": "Point", "coordinates": [120.550199, 24.02961]}}, {"type": "Feature", "properties": {"county": "Changhua County", "township": "Yongjing Township", "parcel_count": 9119, "total_area_ha": 1249.09}, "geometry": {"type": "Point", "coordinates": [120.540446, 23.921409]}}, {"type": "Feature", "properties": {"county": "Changhua County", "township": "Puxin Township", "parcel_count": 9170, "total_area_ha": 1207.31}, "geometry": {"type": "Point", "coordinates": [120.532858, 23.952538]}}, {"type": "Feature", "properties": {"county": "Changhua County", "township": "Xianxi Township", "parcel_count": 5142, "total_area_ha": 1202.76}, "geometry": {"type": "Point", "coordinates": [120.457591, 24.131253]}}, {"type": "Feature", "properties": {"county": "Changhua County", "township": "Beidou Township", "parcel_count": 8490, "total_area_ha": 1197.42}, "geometry": {"type": "Point", "coordinates": [120.534454, 23.866298]}}, {"type": "Feature", "properties": {"county": "Hsinchu City", "township": "Xiangshan District", "parcel_count": 6849, "total_area_ha": 1120.94}, "geometry": {"type": "Point", "coordinates": [120.925724, 24.771188]}}, {"type": "Feature", "properties": {"county": "Hsinchu City", "township": "North District", "parcel_count": 2510, "total_area_ha": 360.05}, "geometry": {"type": "Point", "coordinates": [120.943228, 24.828531]}}, {"type": "Feature", "properties": {"county": "Hsinchu City", "township": "East District", "parcel_count": 2408, "total_area_ha": 359.7}, "geometry": {"type": "Point", "coordinates": [120.998353, 24.799702]}}, {"type": "Feature", "properties": {"county": "Yunlin County", "township": "Gukeng Township", "parcel_count": 16934, "total_area_ha": 7343.2}, "geometry": {"type": "Point", "coordinates": [120.582978, 23.634696]}}, {"type": "Feature", "properties": {"county": "Yunlin County", "township": "Mailiao Township", "parcel_count": 11129, "total_area_ha": 5898.41}, "geometry": {"type": "Point", "coordinates": [120.258391, 23.782469]}}, {"type": "Feature", "properties": {"county": "Yunlin County", "township": "Yuanchang Township", "parcel_count": 19053, "total_area_ha": 5651.64}, "geometry": {"type": "Point", "coordinates": [120.32763, 23.642655]}}, {"type": "Feature", "properties": {"county": "Yunlin County", "township": "Shuilin Township", "parcel_count": 20065, "total_area_ha": 5626.11}, "geometry": {"type": "Point", "coordinates": [120.235216, 23.561992]}}, {"type": "Feature", "properties": {"county": "Yunlin County", "township": "Sihu Township", "parcel_count": 13338, "total_area_ha": 5444.48}, "geometry": {"type": "Point", "coordinates": [120.210427, 23.641277]}}, {"type": "Feature", "properties": {"county": "Yunlin County", "township": "Kouhu Township", "parcel_count": 12399, "total_area_ha": 5183.49}, "geometry": {"type": "Point", "coordinates": [120.171849, 23.573116]}}, {"type": "Feature", "properties": {"county": "Yunlin County", "township": "Erlun Township", "parcel_count": 16530, "total_area_ha": 4454.57}, "geometry": {"type": "Point", "coordinates": [120.395432, 23.791405]}}, {"type": "Feature", "properties": {"county": "Yunlin County", "township": "Douliu City", "parcel_count": 15926, "total_area_ha": 4387.74}, "geometry": {"type": "Point", "coordinates": [120.547898, 23.706731]}}, {"type": "Feature", "properties": {"county": "Yunlin County", "township": "Taixi Township", "parcel_count": 10332, "total_area_ha": 4323.48}, "geometry": {"type": "Point", "coordinates": [120.206125, 23.716909]}}, {"type": "Feature", "properties": {"county": "Yunlin County", "township": "Lunbei Township", "parcel_count": 11510, "total_area_ha": 4286.51}, "geometry": {"type": "Point", "coordinates": [120.332965, 23.778294]}}, {"type": "Feature", "properties": {"county": "Yunlin County", "township": "Huwei Township", "parcel_count": 14941, "total_area_ha": 4041.97}, "geometry": {"type": "Point", "coordinates": [120.428241, 23.716983]}}, {"type": "Feature", "properties": {"county": "Yunlin County", "township": "Citong Township", "parcel_count": 14423, "total_area_ha": 3768.06}, "geometry": {"type": "Point", "coordinates": [120.527593, 23.767453]}}, {"type": "Feature", "properties": {"county": "Yunlin County", "township": "Dongshi Township", "parcel_count": 10460, "total_area_ha": 3627.82}, "geometry": {"type": "Point", "coordinates": [120.256297, 23.696427]}}, {"type": "Feature", "properties": {"county": "Yunlin County", "township": "Tuku Township", "parcel_count": 13223, "total_area_ha": 3597.72}, "geometry": {"type": "Point", "coordinates": [120.363833, 23.691425]}}, {"type": "Feature", "properties": {"county": "Yunlin County", "township": "Dapi Township", "parcel_count": 12288, "total_area_ha": 3346.61}, "geometry": {"type": "Point", "coordinates": [120.424931, 23.64592]}}, {"type": "Feature", "properties": {"county": "Yunlin County", "township": "Xiluo Township", "parcel_count": 12696, "total_area_ha": 3251.64}, "geometry": {"type": "Point", "coordinates": [120.457252, 23.775572]}}, {"type": "Feature", "properties": {"county": "Yunlin County", "township": "Dounan Township", "parcel_count": 11364, "total_area_ha": 3121.88}, "geometry": {"type": "Point", "coordinates": [120.483923, 23.668938]}}, {"type": "Feature", "properties": {"county": "Yunlin County", "township": "Beigang Township", "parcel_count": 8795, "total_area_ha": 2806.66}, "geometry": {"type": "Point", "coordinates": [120.292862, 23.595162]}}, {"type": "Feature", "properties": {"county": "Yunlin County", "township": "Baozhong Township", "parcel_count": 5986, "total_area_ha": 2749.63}, "geometry": {"type": "Point", "coordinates": [120.31248, 23.717112]}}, {"type": "Feature", "properties": {"county": "Yunlin County", "township": "Linnei Township", "parcel_count": 10922, "total_area_ha": 2125.67}, "geometry": {"type": "Point", "coordinates": [120.604055, 23.758864]}}, {"type": "Feature", "properties": {"county": "Chiayi County", "township": "Zhongpu Township", "parcel_count": 22424, "total_area_ha": 7691.33}, "geometry": {"type": "Point", "coordinates": [120.534742, 23.407296]}}, {"type": "Feature", "properties": {"county": "Chiayi County", "township": "Yizhu Township", "parcel_count": 16451, "total_area_ha": 6108.15}, "geometry": {"type": "Point", "coordinates": [120.22457, 23.347147]}}, {"type": "Feature", "properties": {"county": "Chiayi County", "township": "Dongshi Township", "parcel_count": 15372, "total_area_ha": 5689.28}, "geometry": {"type": "Point", "coordinates": [120.173592, 23.469329]}}, {"type": "Feature", "properties": {"county": "Chiayi County", "township": "Zhuqi Township", "parcel_count": 17182, "total_area_ha": 5576.32}, "geometry": {"type": "Point", "coordinates": [120.569584, 23.506551]}}, {"type": "Feature", "properties": {"county": "Chiayi County", "township": "Budai Township", "parcel_count": 10503, "total_area_ha": 5433.32}, "geometry": {"type": "Point", "coordinates": [120.181611, 23.377032]}}, {"type": "Feature", "properties": {"county": "Chiayi County", "township": "Minxiong Township", "parcel_count": 21878, "total_area_ha": 5068.48}, "geometry": {"type": "Point", "coordinates": [120.438497, 23.544506]}}, {"type": "Feature", "properties": {"county": "Chiayi County", "township": "Xingang Township", "parcel_count": 18134, "total_area_ha": 4973.83}, "geometry": {"type": "Point", "coordinates": [120.347998, 23.54658]}}, {"type": "Feature", "properties": {"county": "Chiayi County", "township": "Taibao City", "parcel_count": 15458, "total_area_ha": 4699.04}, "geometry": {"type": "Point", "coordinates": [120.342402, 23.472052]}}, {"type": "Feature", "properties": {"county": "Chiayi County", "township": "Liujiao Township", "parcel_count": 16147, "total_area_ha": 4527.75}, "geometry": {"type": "Point", "coordinates": [120.27128, 23.509482]}}, {"type": "Feature", "properties": {"county": "Chiayi County", "township": "Lucao Township", "parcel_count": 11649, "total_area_ha": 4112.43}, "geometry": {"type": "Point", "coordinates": [120.303797, 23.408318]}}, {"type": "Feature", "properties": {"county": "Chiayi County", "township": "Shuishang Township", "parcel_count": 13539, "total_area_ha": 4097.05}, "geometry": {"type": "Point", "coordinates": [120.406449, 23.430349]}}, {"type": "Feature", "properties": {"county": "Chiayi County", "township": "Meishan Township", "parcel_count": 11696, "total_area_ha": 4021.58}, "geometry": {"type": "Point", "coordinates": [120.612288, 23.56057]}}, {"type": "Feature", "properties": {"county": "Chiayi County", "township": "Dalin Township", "parcel_count": 13881, "total_area_ha": 3707.15}, "geometry": {"type": "Point", "coordinates": [120.477333, 23.602021]}}, {"type": "Feature", "properties": {"county": "Chiayi County", "township": "Puzi City", "parcel_count": 12863, "total_area_ha": 3694.73}, "geometry": {"type": "Point", "coordinates": [120.253127, 23.443781]}}, {"type": "Feature", "properties": {"county": "Chiayi County", "township": "Fanlu Township", "parcel_count": 9159, "total_area_ha": 3502.03}, "geometry": {"type": "Point", "coordinates": [120.603427, 23.435208]}}, {"type": "Feature", "properties": {"county": "Chiayi County", "township": "Xikou Township", "parcel_count": 9767, "total_area_ha": 2468.93}, "geometry": {"type": "Point", "coordinates": [120.400741, 23.59289]}}, {"type": "Feature", "properties": {"county": "Chiayi County", "township": "Dapu Township", "parcel_count": 2690, "total_area_ha": 1609.45}, "geometry": {"type": "Point", "coordinates": [120.588758, 23.301455]}}, {"type": "Feature", "properties": {"county": "Chiayi County", "township": "Alishan Township", "parcel_count": 7708, "total_area_ha": 1454.42}, "geometry": {"type": "Point", "coordinates": [120.709883, 23.40996]}}, {"type": "Feature", "properties": {"county": "Pingtung County", "township": "Gaoshu Township", "parcel_count": 24150, "total_area_ha": 5675.99}, "geometry": {"type": "Point", "coordinates": [120.602929, 22.806621]}}, {"type": "Feature", "properties": {"county": "Pingtung County", "township": "Neipu Township", "parcel_count": 15020, "total_area_ha": 5527.25}, "geometry": {"type": "Point", "coordinates": [120.587413, 22.652292]}}, {"type": "Feature", "properties": {"county": "Pingtung County", "township": "Wanluan Township", "parcel_count": 13061, "total_area_ha": 4751.97}, "geometry": {"type": "Point", "coordinates": [120.601035, 22.581041]}}, {"type": "Feature", "properties": {"county": "Pingtung County", "township": "Fangliao Township", "parcel_count": 10781, "total_area_ha": 4338.31}, "geometry": {"type": "Point", "coordinates": [120.598332, 22.404469]}}, {"type": "Feature", "properties": {"county": "Pingtung County", "township": "Wandan Township", "parcel_count": 18057, "total_area_ha": 4268.79}, "geometry": {"type": "Point", "coordinates": [120.478632, 22.588103]}}, {"type": "Feature", "properties": {"county": "Pingtung County", "township": "Xinpi Township", "parcel_count": 8899, "total_area_ha": 4198.46}, "geometry": {"type": "Point", "coordinates": [120.583007, 22.487762]}}, {"type": "Feature", "properties": {"county": "Pingtung County", "township": "Yanpu Township", "parcel_count": 11645, "total_area_ha": 4130.96}, "geometry": {"type": "Point", "coordinates": [120.565741, 22.742008]}}, {"type": "Feature", "properties": {"county": "Pingtung County", "township": "Hengchun Township", "parcel_count": 11455, "total_area_ha": 3857.92}, "geometry": {"type": "Point", "coordinates": [120.742746, 21.987079]}}, {"type": "Feature", "properties": {"county": "Pingtung County", "township": "Ligang Township", "parcel_count": 11564, "total_area_ha": 3523.6}, "geometry": {"type": "Point", "coordinates": [120.503012, 22.798168]}}, {"type": "Feature", "properties": {"county": "Pingtung County", "township": "Changzhi Township", "parcel_count": 9194, "total_area_ha": 3487.43}, "geometry": {"type": "Point", "coordinates": [120.558388, 22.694576]}}, {"type": "Feature", "properties": {"county": "Pingtung County", "township": "Chaozhou Township", "parcel_count": 7914, "total_area_ha": 3003.94}, "geometry": {"type": "Point", "coordinates": [120.560498, 22.535307]}}, {"type": "Feature", "properties": {"county": "Pingtung County", "township": "Jiuru Township", "parcel_count": 9277, "total_area_ha": 2994.55}, "geometry": {"type": "Point", "coordinates": [120.488559, 22.733565]}}, {"type": "Feature", "properties": {"county": "Pingtung County", "township": "Pingtung City", "parcel_count": 10775, "total_area_ha": 2721.72}, "geometry": {"type": "Point", "coordinates": [120.48316, 22.659524]}}, {"type": "Feature", "properties": {"county": "Pingtung County", "township": "Xinyuan Township", "parcel_count": 10596, "total_area_ha": 2667.9}, "geometry": {"type": "Point", "coordinates": [120.451821, 22.519814]}}, {"type": "Feature", "properties": {"county": "Pingtung County", "township": "Jiadong Township", "parcel_count": 9759, "total_area_ha": 2034.52}, "geometry": {"type": "Point", "coordinates": [120.548512, 22.429422]}}, {"type": "Feature", "properties": {"county": "Pingtung County", "township": "Kanding Township", "parcel_count": 6404, "total_area_ha": 1904.7}, "geometry": {"type": "Point", "coordinates": [120.501677, 22.515173]}}, {"type": "Feature", "properties": {"county": "Pingtung County", "township": "Zhutian Township", "parcel_count": 7169, "total_area_ha": 1890.44}, "geometry": {"type": "Point", "coordinates": [120.527237, 22.590124]}}, {"type": "Feature", "properties": {"county": "Pingtung County", "township": "Nanzhou Township", "parcel_count": 5013, "total_area_ha": 1493.54}, "geometry": {"type": "Point", "coordinates": [120.518545, 22.479043]}}, {"type": "Feature", "properties": {"county": "Pingtung County", "township": "Sandimen Township", "parcel_count": 2164, "total_area_ha": 1436.35}, "geometry": {"type": "Point", "coordinates": [120.649203, 22.77036]}}, {"type": "Feature", "properties": {"county": "Pingtung County", "township": "Manzhou Township", "parcel_count": 2833, "total_area_ha": 1400.08}, "geometry": {"type": "Point", "coordinates": [120.831105, 22.038048]}}, {"type": "Feature", "properties": {"county": "Pingtung County", "township": "Shizi Township", "parcel_count": 1907, "total_area_ha": 1336.09}, "geometry": {"type": "Point", "coordinates": [120.684494, 22.263734]}}, {"type": "Feature", "properties": {"county": "Pingtung County", "township": "Donggang Township", "parcel_count": 4685, "total_area_ha": 1327.63}, "geometry": {"type": "Point", "coordinates": [120.480846, 22.467808]}}, {"type": "Feature", "properties": {"county": "Pingtung County", "township": "Laiyi Township", "parcel_count": 2929, "total_area_ha": 1183.38}, "geometry": {"type": "Point", "coordinates": [120.64299, 22.491501]}}, {"type": "Feature", "properties": {"county": "Pingtung County", "township": "Linbian Township", "parcel_count": 3521, "total_area_ha": 1056.04}, "geometry": {"type": "Point", "coordinates": [120.512653, 22.443019]}}, {"type": "Feature", "properties": {"county": "Pingtung County", "township": "Linluo Township", "parcel_count": 3238, "total_area_ha": 1003.66}, "geometry": {"type": "Point", "coordinates": [120.529701, 22.648413]}}, {"type": "Feature", "properties": {"county": "Pingtung County", "township": "Checheng Township", "parcel_count": 5100, "total_area_ha": 975.7}, "geometry": {"type": "Point", "coordinates": [120.728569, 22.075831]}}, {"type": "Feature", "properties": {"county": "Pingtung County", "township": "Fangshan Township", "parcel_count": 2858, "total_area_ha": 834.25}, "geometry": {"type": "Point", "coordinates": [120.656486, 22.274314]}}, {"type": "Feature", "properties": {"county": "Pingtung County", "township": "Chunri Township", "parcel_count": 901, "total_area_ha": 723.25}, "geometry": {"type": "Point", "coordinates": [120.641856, 22.391922]}}, {"type": "Feature", "properties": {"county": "Pingtung County", "township": "Taiwu Township", "parcel_count": 1210, "total_area_ha": 630.72}, "geometry": {"type": "Point", "coordinates": [120.651454, 22.596209]}}, {"type": "Feature", "properties": {"county": "Pingtung County", "township": "Mudan Township", "parcel_count": 1073, "total_area_ha": 416.39}, "geometry": {"type": "Point", "coordinates": [120.813017, 22.149433]}}, {"type": "Feature", "properties": {"county": "Pingtung County", "township": "Majia Township", "parcel_count": 430, "total_area_ha": 284.5}, "geometry": {"type": "Point", "coordinates": [120.653583, 22.667952]}}, {"type": "Feature", "properties": {"county": "Pingtung County", "township": "Wutai Township", "parcel_count": 205, "total_area_ha": 92.19}, "geometry": {"type": "Point", "coordinates": [120.733091, 22.752297]}}, {"type": "Feature", "properties": {"county": "Pingtung County", "township": "Liuqiu Township", "parcel_count": 610, "total_area_ha": 45.4}, "geometry": {"type": "Point", "coordinates": [120.37089, 22.342641]}}, {"type": "Feature", "properties": {"county": "Hualien County", "township": "Fenglin Township", "parcel_count": 11993, "total_area_ha": 7520.97}, "geometry": {"type": "Point", "coordinates": [121.466219, 23.743188]}}, {"type": "Feature", "properties": {"county": "Hualien County", "township": "Yuli Township", "parcel_count": 20876, "total_area_ha": 6262.96}, "geometry": {"type": "Point", "coordinates": [121.348228, 23.371744]}}, {"type": "Feature", "properties": {"county": "Hualien County", "township": "Shoufeng Township", "parcel_count": 12313, "total_area_ha": 5979.97}, "geometry": {"type": "Point", "coordinates": [121.519299, 23.857285]}}, {"type": "Feature", "properties": {"county": "Hualien County", "township": "Guangfu Township", "parcel_count": 10327, "total_area_ha": 5319.99}, "geometry": {"type": "Point", "coordinates": [121.419509, 23.642013]}}, {"type": "Feature", "properties": {"county": "Hualien County", "township": "Ruisui Township", "parcel_count": 11879, "total_area_ha": 4495.46}, "geometry": {"type": "Point", "coordinates": [121.380357, 23.519575]}}, {"type": "Feature", "properties": {"county": "Hualien County", "township": "Fuli Township", "parcel_count": 17860, "total_area_ha": 4004.63}, "geometry": {"type": "Point", "coordinates": [121.279757, 23.20693]}}, {"type": "Feature", "properties": {"county": "Hualien County", "township": "Ji'an Township", "parcel_count": 14972, "total_area_ha": 2576.11}, "geometry": {"type": "Point", "coordinates": [121.566406, 23.953973]}}, {"type": "Feature", "properties": {"county": "Hualien County", "township": "Wanrong Township", "parcel_count": 4146, "total_area_ha": 1853.52}, "geometry": {"type": "Point", "coordinates": [121.388837, 23.658658]}}, {"type": "Feature", "properties": {"county": "Hualien County", "township": "Zhuoxi Township", "parcel_count": 3248, "total_area_ha": 1678.13}, "geometry": {"type": "Point", "coordinates": [121.279086, 23.331622]}}, {"type": "Feature", "properties": {"county": "Hualien County", "township": "Xiulin Township", "parcel_count": 3173, "total_area_ha": 1334.85}, "geometry": {"type": "Point", "coordinates": [121.562358, 24.057276]}}, {"type": "Feature", "properties": {"county": "Hualien County", "township": "Fengbin Township", "parcel_count": 4268, "total_area_ha": 892.24}, "geometry": {"type": "Point", "coordinates": [121.514896, 23.588365]}}, {"type": "Feature", "properties": {"county": "Hualien County", "township": "Xincheng Township", "parcel_count": 2780, "total_area_ha": 849.96}, "geometry": {"type": "Point", "coordinates": [121.614161, 24.067534]}}, {"type": "Feature", "properties": {"county": "Hualien County", "township": "Hualien City", "parcel_count": 1927, "total_area_ha": 458.42}, "geometry": {"type": "Point", "coordinates": [121.597512, 24.001497]}}, {"type": "Feature", "properties": {"county": "Taitung County", "township": "Taitung City", "parcel_count": 18098, "total_area_ha": 5341.15}, "geometry": {"type": "Point", "coordinates": [121.100755, 22.747278]}}, {"type": "Feature", "properties": {"county": "Taitung County", "township": "Beinan Township", "parcel_count": 10774, "total_area_ha": 4250.37}, "geometry": {"type": "Point", "coordinates": [121.095724, 22.817372]}}, {"type": "Feature", "properties": {"county": "Taitung County", "township": "Luye Township", "parcel_count": 11668, "total_area_ha": 3055.78}, "geometry": {"type": "Point", "coordinates": [121.141766, 22.945932]}}, {"type": "Feature", "properties": {"county": "Taitung County", "township": "Donghe Township", "parcel_count": 10533, "total_area_ha": 2902.83}, "geometry": {"type": "Point", "coordinates": [121.255043, 22.952108]}}, {"type": "Feature", "properties": {"county": "Taitung County", "township": "Chishang Township", "parcel_count": 9054, "total_area_ha": 2894.06}, "geometry": {"type": "Point", "coordinates": [121.210107, 23.105341]}}, {"type": "Feature", "properties": {"county": "Taitung County", "township": "Guanshan Township", "parcel_count": 10153, "total_area_ha": 2665.67}, "geometry": {"type": "Point", "coordinates": [121.170529, 23.047604]}}, {"type": "Feature", "properties": {"county": "Taitung County", "township": "Taimali Township", "parcel_count": 5832, "total_area_ha": 2507.79}, "geometry": {"type": "Point", "coordinates": [120.996438, 22.620624]}}, {"type": "Feature", "properties": {"county": "Taitung County", "township": "Changbin Township", "parcel_count": 11181, "total_area_ha": 2144.41}, "geometry": {"type": "Point", "coordinates": [121.440768, 23.325712]}}, {"type": "Feature", "properties": {"county": "Taitung County", "township": "Chenggong Township", "parcel_count": 11945, "total_area_ha": 1900.2}, "geometry": {"type": "Point", "coordinates": [121.362838, 23.102307]}}, {"type": "Feature", "properties": {"county": "Taitung County", "township": "Haiduan Township", "parcel_count": 2656, "total_area_ha": 1192.85}, "geometry": {"type": "Point", "coordinates": [121.132302, 23.109411]}}, {"type": "Feature", "properties": {"county": "Taitung County", "township": "Yanping Township", "parcel_count": 3005, "total_area_ha": 1088.91}, "geometry": {"type": "Point", "coordinates": [121.111411, 22.908591]}}, {"type": "Feature", "properties": {"county": "Taitung County", "township": "Jinfeng Township", "parcel_count": 2074, "total_area_ha": 1007.31}, "geometry": {"type": "Point", "coordinates": [120.959279, 22.614192]}}, {"type": "Feature", "properties": {"county": "Taitung County", "township": "Daren Township", "parcel_count": 1680, "total_area_ha": 740.05}, "geometry": {"type": "Point", "coordinates": [120.881513, 22.413796]}}, {"type": "Feature", "properties": {"county": "Taitung County", "township": "Dawu Township", "parcel_count": 1285, "total_area_ha": 546.4}, "geometry": {"type": "Point", "coordinates": [120.899171, 22.378676]}}, {"type": "Feature", "properties": {"county": "Taitung County", "township": "Lanyu Township", "parcel_count": 2183, "total_area_ha": 209.96}, "geometry": {"type": "Point", "coordinates": [121.546155, 22.05169]}}, {"type": "Feature", "properties": {"county": "Taitung County", "township": "Ludao Township", "parcel_count": 379, "total_area_ha": 53.77}, "geometry": {"type": "Point", "coordinates": [121.486141, 22.665833]}}]}